{
  "type": "FeatureCollection",
  "features": [
    {
      "type": "Feature",
      "properties": {
        "norad_id": 57400,
        "name": "TIANMU-1 08",
        "group": "weather",
        "lat": -61.59982322039133,
        "lon": 46.81785573970894,
        "alt_km": 493.77197335283563,
        "timestamp": "2025-12-09T09:46:47.290959+00:00",
        "meta_object_name": "TIANMU-1 08",
        "meta_object_id": "2023-101B",
        "meta_epoch": "2025-12-08T23:03:03.609216",
        "meta_mean_motion": 15.27969819,
        "meta_eccentricity": 0.00075561,
        "meta_inclination": 97.2865,
        "meta_ra_of_asc_node": 32.6923,
        "meta_arg_of_pericenter": 94.3797,
        "meta_mean_anomaly": 265.8306,
        "meta_ephemeris_type": 0,
        "meta_classification_type": "U",
        "meta_norad_cat_id": 57400,
        "meta_element_set_no": 999,
        "meta_rev_at_epoch": 13257,
        "meta_bstar": 0.00034158036,
        "meta_mean_motion_dot": 9.259e-05,
        "meta_mean_motion_ddot": 0,
        "tle_line1": "1 57400U 23101B   25342.96045844  .00009259  00000+0  34158-3 0  9997",
        "tle_line2": "2 57400  97.2865  32.6923 0007556  94.3797 265.8306 15.27969819132577"
      },
      "geometry": {
        "type": "Point",
        "coordinates": [
          46.81785573970894,
          -61.59982322039133
        ]
      }
    },
    {
      "type": "Feature",
      "properties": {
        "norad_id": 57401,
        "name": "TIANMU-1 09",
        "group": "weather",
        "lat": 9.651583719774376,
        "lon": 31.398465962837538,
        "alt_km": 482.9196386510821,
        "timestamp": "2025-12-09T09:46:47.290976+00:00",
        "meta_object_name": "TIANMU-1 09",
        "meta_object_id": "2023-101C",
        "meta_epoch": "2025-12-08T22:44:07.725696",
        "meta_mean_motion": 15.27996198,
        "meta_eccentricity": 0.00068186,
        "meta_inclination": 97.2821,
        "meta_ra_of_asc_node": 32.1949,
        "meta_arg_of_pericenter": 93.9355,
        "meta_mean_anomaly": 266.2664,
        "meta_ephemeris_type": 0,
        "meta_classification_type": "U",
        "meta_norad_cat_id": 57401,
        "meta_element_set_no": 999,
        "meta_rev_at_epoch": 13257,
        "meta_bstar": 0.00035003602,
        "meta_mean_motion_dot": 9.497e-05,
        "meta_mean_motion_ddot": 0,
        "tle_line1": "1 57401U 23101C   25342.94731164  .00009497  00000+0  35004-3 0  9998",
        "tle_line2": "2 57401  97.2821  32.1949 0006818  93.9355 266.2664 15.27996198132570"
      },
      "geometry": {
        "type": "Point",
        "coordinates": [
          31.398465962837538,
          9.651583719774376
        ]
      }
    },
    {
      "type": "Feature",
      "properties": {
        "norad_id": 57402,
        "name": "TIANMU-1 10",
        "group": "weather",
        "lat": -2.1664070484096802,
        "lon": -146.78666251664265,
        "alt_km": 485.12442655543146,
        "timestamp": "2025-12-09T09:46:47.290992+00:00",
        "meta_object_name": "TIANMU-1 10",
        "meta_object_id": "2023-101D",
        "meta_epoch": "2025-12-08T23:33:22.083840",
        "meta_mean_motion": 15.2798746,
        "meta_eccentricity": 0.00085563,
        "meta_inclination": 97.2902,
        "meta_ra_of_asc_node": 33.0741,
        "meta_arg_of_pericenter": 94.1447,
        "meta_mean_anomaly": 266.0771,
        "meta_ephemeris_type": 0,
        "meta_classification_type": "U",
        "meta_norad_cat_id": 57402,
        "meta_element_set_no": 999,
        "meta_rev_at_epoch": 13257,
        "meta_bstar": 0.00034032168,
        "meta_mean_motion_dot": 9.232e-05,
        "meta_mean_motion_ddot": 0,
        "tle_line1": "1 57402U 23101D   25342.98150560  .00009232  00000+0  34032-3 0  9995",
        "tle_line2": "2 57402  97.2902  33.0741 0008556  94.1447 266.0771 15.27987460132576"
      },
      "geometry": {
        "type": "Point",
        "coordinates": [
          -146.78666251664265,
          -2.1664070484096802
        ]
      }
    },
    {
      "type": "Feature",
      "properties": {
        "norad_id": 57490,
        "name": "FENGYUN 3F",
        "group": "weather",
        "lat": -62.07470110410731,
        "lon": 68.56339571009471,
        "alt_km": 833.2989116434555,
        "timestamp": "2025-12-09T09:46:47.291008+00:00",
        "meta_object_name": "FENGYUN 3F",
        "meta_object_id": "2023-111A",
        "meta_epoch": "2025-12-08T22:14:21.219936",
        "meta_mean_motion": 14.19891917,
        "meta_eccentricity": 6.6e-05,
        "meta_inclination": 98.7088,
        "meta_ra_of_asc_node": 51.2815,
        "meta_arg_of_pericenter": 94.6792,
        "meta_mean_anomaly": 265.446,
        "meta_ephemeris_type": 0,
        "meta_classification_type": "U",
        "meta_norad_cat_id": 57490,
        "meta_element_set_no": 999,
        "meta_rev_at_epoch": 12186,
        "meta_bstar": 8.6714927e-05,
        "meta_mean_motion_dot": 1.4e-06,
        "meta_mean_motion_ddot": 0,
        "tle_line1": "1 57490U 23111A   25342.92663449  .00000140  00000+0  86715-4 0  9997",
        "tle_line2": "2 57490  98.7088  51.2815 0000660  94.6792 265.4460 14.19891917121863"
      },
      "geometry": {
        "type": "Point",
        "coordinates": [
          68.56339571009471,
          -62.07470110410731
        ]
      }
    },
    {
      "type": "Feature",
      "properties": {
        "norad_id": 58584,
        "name": "ARKTIKA-M 2",
        "group": "weather",
        "lat": 44.8166377723133,
        "lon": -154.62470464997907,
        "alt_km": 25233.166381890445,
        "timestamp": "2025-12-09T09:46:47.291027+00:00",
        "meta_object_name": "ARKTIKA-M 2",
        "meta_object_id": "2023-198A",
        "meta_epoch": "2025-12-07T20:14:37.201632",
        "meta_mean_motion": 2.00604572,
        "meta_eccentricity": 0.68645726,
        "meta_inclination": 63.2245,
        "meta_ra_of_asc_node": 175.4245,
        "meta_arg_of_pericenter": 268.1228,
        "meta_mean_anomaly": 18.8285,
        "meta_ephemeris_type": 0,
        "meta_classification_type": "U",
        "meta_norad_cat_id": 58584,
        "meta_element_set_no": 999,
        "meta_rev_at_epoch": 1448,
        "meta_bstar": 0,
        "meta_mean_motion_dot": 1.69e-06,
        "meta_mean_motion_ddot": 0,
        "tle_line1": "1 58584U 23198A   25341.84348613  .00000169  00000+0  00000+0 0  9999",
        "tle_line2": "2 58584  63.2245 175.4245 6864572 268.1228  18.8285  2.00604572 14484"
      },
      "geometry": {
        "type": "Point",
        "coordinates": [
          -154.62470464997907,
          44.8166377723133
        ]
      }
    },
    {
      "type": "Feature",
      "properties": {
        "norad_id": 58645,
        "name": "TIANMU-1 11",
        "group": "weather",
        "lat": 42.185757626608066,
        "lon": -3.6387282086016373,
        "alt_km": 487.68982056927507,
        "timestamp": "2025-12-09T09:46:47.291046+00:00",
        "meta_object_name": "TIANMU-1 11",
        "meta_object_id": "2023-205A",
        "meta_epoch": "2025-12-09T00:08:31.407648",
        "meta_mean_motion": 15.24527849,
        "meta_eccentricity": 0.0008248,
        "meta_inclination": 97.3606,
        "meta_ra_of_asc_node": 2.6947,
        "meta_arg_of_pericenter": 325.5319,
        "meta_mean_anomaly": 34.5382,
        "meta_ephemeris_type": 0,
        "meta_classification_type": "U",
        "meta_norad_cat_id": 58645,
        "meta_element_set_no": 999,
        "meta_rev_at_epoch": 10852,
        "meta_bstar": 0.00032472716,
        "meta_mean_motion_dot": 7.928e-05,
        "meta_mean_motion_ddot": 0,
        "tle_line1": "1 58645U 23205A   25343.00591907  .00007928  00000+0  32473-3 0  9995",
        "tle_line2": "2 58645  97.3606   2.6947 0008248 325.5319  34.5382 15.24527849108527"
      },
      "geometry": {
        "type": "Point",
        "coordinates": [
          -3.6387282086016373,
          42.185757626608066
        ]
      }
    },
    {
      "type": "Feature",
      "properties": {
        "norad_id": 58646,
        "name": "TIANMU-1 12",
        "group": "weather",
        "lat": -74.41313718111766,
        "lon": 155.29415121769142,
        "alt_km": 497.22256574205676,
        "timestamp": "2025-12-09T09:46:47.291065+00:00",
        "meta_object_name": "TIANMU-1 12",
        "meta_object_id": "2023-205B",
        "meta_epoch": "2025-12-08T16:54:17.464320",
        "meta_mean_motion": 15.2440473,
        "meta_eccentricity": 0.00061116,
        "meta_inclination": 97.3594,
        "meta_ra_of_asc_node": 2.2053,
        "meta_arg_of_pericenter": 309.5629,
        "meta_mean_anomaly": 50.5068,
        "meta_ephemeris_type": 0,
        "meta_classification_type": "U",
        "meta_norad_cat_id": 58646,
        "meta_element_set_no": 999,
        "meta_rev_at_epoch": 10846,
        "meta_bstar": 0.00036097392,
        "meta_mean_motion_dot": 8.785e-05,
        "meta_mean_motion_ddot": 0,
        "tle_line1": "1 58646U 23205B   25342.70436880  .00008785  00000+0  36097-3 0  9998",
        "tle_line2": "2 58646  97.3594   2.2053 0006111 309.5629  50.5068 15.24404730108466"
      },
      "geometry": {
        "type": "Point",
        "coordinates": [
          155.29415121769142,
          -74.41313718111766
        ]
      }
    }
  ]
}